[{"OBJECT_NAME":"STARLINK-3873","OBJECT_ID":"2022-049S","EPOCH":"2026-03-09T06:25:18.420384","MEAN_MOTION":15.0883171,"ECCENTRICITY":0.00013386,"INCLINATION":53.2168,"RA_OF_ASC_NODE":61.015,"ARG_OF_PERICENTER":91.4534,"MEAN_ANOMALY":268.6611,"EPHEMERIS_TYPE":0,"CLASSIFICATION_TYPE":"U","NORAD_CAT_ID":52467,"ELEMENT_SET_NO":999,"REV_AT_EPOCH":21218,"BSTAR":-1.6497752e-5,"MEAN_MOTION_DOT":-5.5e-6,"MEAN_MOTION_DDOT":0},{"OBJECT_NAME":"OBJECT K","OBJECT_ID":"2017-042K","EPOCH":"2026-03-09T21:28:20.621568","MEAN_MOTION":15.07994228,"ECCENTRICITY":0.00097557,"INCLINATION":97.4104,"RA_OF_ASC_NODE":233.8721,"ARG_OF_PERICENTER":49.2775,"MEAN_ANOMALY":310.9299,"EPHEMERIS_TYPE":0,"CLASSIFICATION_TYPE":"U","NORAD_CAT_ID":42834,"ELEMENT_SET_NO":999,"REV_AT_EPOCH":47201,"BSTAR":0.00042776846,"MEAN_MOTION_DOT":6.528e-5,"MEAN_MOTION_DDOT":0}]
